start=new Date('2022-09-12T00:00:00.000Z').valueOf();
sats=[{"MEAN_MOTION":"15.38938081","INCLINATION":"97.6556","MEAN_MOTION_DOT":"-0.01212809","MEAN_ANOMALY":"218.0753","ELEMENT_SET_NO":"999","DECAY_DATE":null,"OBJECT_NAME":"STARLINK-4448","REF_FRAME":"TEME","GP_ID":"212359111","ECCENTRICITY":"0.00019850","RCS_SIZE":"LARGE","PERIOD":"93.571","CENTER_NAME":"EARTH","MEAN_ELEMENT_THEORY":"SGP4","FILE":"3569361","NORAD_CAT_ID":"53504","BSTAR":"-0.03468800000000","CLASSIFICATION_TYPE":"U","ARG_OF_PERICENTER":"61.5881","EPHEMERIS_TYPE":"0","OBJECT_TYPE":"PAYLOAD","REV_AT_EPOCH":"130","TIME_SYSTEM":"UTC","TLE_LINE2":"2 53504  97.6556  14.5677 0001985  61.5881 218.0753 15.38938081  1305","TLE_LINE1":"1 53504U 22099AR  22254.91667824 -.01212809  00000-0 -34688-1 0  9992","PERIAPSIS":"447.895","MEAN_MOTION_DDOT":"0.0000000000000","SEMIMAJOR_AXIS":"6827.385","EPOCH":"2022-09-11T22:00:00.999936","OBJECT_ID":"2022-099AR","RA_OF_ASC_NODE":"14.5677","SITE":"AFWTR","LAUNCH_DATE":"2022-08-12","COUNTRY_CODE":"US","APOAPSIS":"450.605"},{"GP_ID":"212332607","REF_FRAME":"TEME","ECCENTRICITY":"0.00018520","PERIOD":"93.539","RCS_SIZE":"LARGE","CENTER_NAME":"EARTH","MEAN_ELEMENT_THEORY":"SGP4","NORAD_CAT_ID":"53505","FILE":"3569255","ARG_OF_PERICENTER":"71.5604","BSTAR":"-0.03409000000000","CLASSIFICATION_TYPE":"U","INCLINATION":"97.6557","MEAN_MOTION":"15.39468776","MEAN_MOTION_DOT":"-0.01212833","MEAN_ANOMALY":"221.1854","ELEMENT_SET_NO":"999","DECAY_DATE":null,"OBJECT_NAME":"STARLINK-4446","OBJECT_ID":"2022-099AS","RA_OF_ASC_NODE":"14.5659","SITE":"AFWTR","LAUNCH_DATE":"2022-08-12","COUNTRY_CODE":"US","APOAPSIS":"448.945","EPHEMERIS_TYPE":"0","OBJECT_TYPE":"PAYLOAD","REV_AT_EPOCH":"493","TIME_SYSTEM":"UTC","TLE_LINE1":"1 53505U 22099AS  22254.91667824 -.01212833  00000-0 -34090-1 0  9997","TLE_LINE2":"2 53505  97.6557  14.5659 0001852  71.5604 221.1854 15.39468776  4933","PERIAPSIS":"446.417","MEAN_MOTION_DDOT":"0.0000000000000","SEMIMAJOR_AXIS":"6825.816","EPOCH":"2022-09-11T22:00:00.999936"},{"OBJECT_NAME":"STARLINK-4437","DECAY_DATE":null,"ELEMENT_SET_NO":"999","MEAN_ANOMALY":"223.2513","INCLINATION":"97.6557","MEAN_MOTION":"15.39214432","MEAN_MOTION_DOT":"-0.01212779","CLASSIFICATION_TYPE":"U","BSTAR":"-0.03437400000000","ARG_OF_PERICENTER":"63.5815","MEAN_ELEMENT_THEORY":"SGP4","NORAD_CAT_ID":"53506","FILE":"3569361","PERIOD":"93.554","RCS_SIZE":"LARGE","CENTER_NAME":"EARTH","REF_FRAME":"TEME","GP_ID":"212360185","ECCENTRICITY":"0.00019420","TLE_LINE1":"1 53506U 22099AT  22254.91667824 -.01212779  00000-0 -34374-1 0  9992","TLE_LINE2":"2 53506  97.6557  14.5652 0001942  63.5815 223.2513 15.39214432  1303","SEMIMAJOR_AXIS":"6826.568","PERIAPSIS":"447.107","MEAN_MOTION_DDOT":"0.0000000000000","EPOCH":"2022-09-11T22:00:00.999936","TIME_SYSTEM":"UTC","OBJECT_TYPE":"PAYLOAD","REV_AT_EPOCH":"130","EPHEMERIS_TYPE":"0","COUNTRY_CODE":"US","APOAPSIS":"449.759","SITE":"AFWTR","LAUNCH_DATE":"2022-08-12","RA_OF_ASC_NODE":"14.5652","OBJECT_ID":"2022-099AT"},{"TIME_SYSTEM":"UTC","TLE_LINE2":"2 53507  97.6557  14.5666 0001930  62.0619 236.1561 15.39748944  1308","TLE_LINE1":"1 53507U 22099AU  22254.91667824 -.01212935  00000-0 -33779-1 0  9995","SEMIMAJOR_AXIS":"6824.988","PERIAPSIS":"445.536","EPOCH":"2022-09-11T22:00:00.999936","MEAN_MOTION_DDOT":"0.0000000000000","EPHEMERIS_TYPE":"0","OBJECT_TYPE":"PAYLOAD","REV_AT_EPOCH":"130","SITE":"AFWTR","LAUNCH_DATE":"2022-08-12","COUNTRY_CODE":"US","APOAPSIS":"448.170","OBJECT_ID":"2022-099AU","RA_OF_ASC_NODE":"14.5666","ELEMENT_SET_NO":"999","DECAY_DATE":null,"OBJECT_NAME":"STARLINK-4444","INCLINATION":"97.6557","MEAN_MOTION":"15.39748944","MEAN_MOTION_DOT":"-0.01212935","MEAN_ANOMALY":"236.1561","MEAN_ELEMENT_THEORY":"SGP4","NORAD_CAT_ID":"53507","FILE":"3569361","CLASSIFICATION_TYPE":"U","BSTAR":"-0.03377900000000","ARG_OF_PERICENTER":"62.0619","GP_ID":"212360032","REF_FRAME":"TEME","ECCENTRICITY":"0.00019300","RCS_SIZE":"LARGE","PERIOD":"93.522","CENTER_NAME":"EARTH"},{"RA_OF_ASC_NODE":"14.5674","OBJECT_ID":"2022-099AV","APOAPSIS":"449.051","COUNTRY_CODE":"US","LAUNCH_DATE":"2022-08-12","SITE":"AFWTR","REV_AT_EPOCH":"130","OBJECT_TYPE":"PAYLOAD","EPHEMERIS_TYPE":"0","PERIAPSIS":"446.318","SEMIMAJOR_AXIS":"6825.819","EPOCH":"2022-09-11T22:00:00.999936","MEAN_MOTION_DDOT":"0.0000000000000","TLE_LINE2":"2 53508  97.6557  14.5674 0002002  58.0555 233.8924 15.39467689  1304","TLE_LINE1":"1 53508U 22099AV  22254.91667824 -.01212871  00000-0 -34091-1 0  9993","TIME_SYSTEM":"UTC","PERIOD":"93.539","RCS_SIZE":"LARGE","CENTER_NAME":"EARTH","GP_ID":"212359527","REF_FRAME":"TEME","ECCENTRICITY":"0.00020020","BSTAR":"-0.03409100000000","CLASSIFICATION_TYPE":"U","ARG_OF_PERICENTER":"58.0555","NORAD_CAT_ID":"53508","FILE":"3569361","MEAN_ELEMENT_THEORY":"SGP4","MEAN_ANOMALY":"233.8924","MEAN_MOTION_DOT":"-0.01212871","INCLINATION":"97.6557","MEAN_MOTION":"15.39467689","OBJECT_NAME":"STARLINK-4443","ELEMENT_SET_NO":"999","DECAY_DATE":null},{"PERIAPSIS":"444.913","SEMIMAJOR_AXIS":"6824.371","EPOCH":"2022-09-11T22:00:00.999936","MEAN_MOTION_DDOT":"0.0000000000000","TLE_LINE1":"1 53509U 22099AW  22254.91667824 -.01213072  00000-0 -33551-1 0  9998","TLE_LINE2":"2 53509  97.6557  14.5653 0001939  60.3916 242.8111 15.39957760  1309","TIME_SYSTEM":"UTC","REV_AT_EPOCH":"130","OBJECT_TYPE":"PAYLOAD","EPHEMERIS_TYPE":"0","APOAPSIS":"447.559","COUNTRY_CODE":"US","LAUNCH_DATE":"2022-08-12","SITE":"AFWTR","RA_OF_ASC_NODE":"14.5653","OBJECT_ID":"2022-099AW","OBJECT_NAME":"STARLINK-4402","ELEMENT_SET_NO":"999","DECAY_DATE":null,"MEAN_ANOMALY":"242.8111","MEAN_MOTION_DOT":"-0.01213072","INCLINATION":"97.6557","MEAN_MOTION":"15.39957760","BSTAR":"-0.03355100000000","ARG_OF_PERICENTER":"60.3916","CLASSIFICATION_TYPE":"U","NORAD_CAT_ID":"53509","FILE":"3569361","MEAN_ELEMENT_THEORY":"SGP4","PERIOD":"93.509","RCS_SIZE":"LARGE","CENTER_NAME":"EARTH","REF_FRAME":"TEME","GP_ID":"212359266","ECCENTRICITY":"0.00019390"},{"TIME_SYSTEM":"UTC","TLE_LINE2":"2 53510  97.6557  14.5650 0001946  60.6045 238.7959 15.39773379  1308","TLE_LINE1":"1 53510U 22099AX  22254.91667824 -.01212980  00000-0 -33753-1 0  9991","EPOCH":"2022-09-11T22:00:00.999936","PERIAPSIS":"445.453","SEMIMAJOR_AXIS":"6824.916","MEAN_MOTION_DDOT":"0.0000000000000","EPHEMERIS_TYPE":"0","OBJECT_TYPE":"PAYLOAD","REV_AT_EPOCH":"130","SITE":"AFWTR","LAUNCH_DATE":"2022-08-12","COUNTRY_CODE":"US","APOAPSIS":"448.109","OBJECT_ID":"2022-099AX","RA_OF_ASC_NODE":"14.5650","ELEMENT_SET_NO":"999","DECAY_DATE":null,"OBJECT_NAME":"STARLINK-4441","MEAN_MOTION":"15.39773379","INCLINATION":"97.6557","MEAN_MOTION_DOT":"-0.01212980","MEAN_ANOMALY":"238.7959","MEAN_ELEMENT_THEORY":"SGP4","FILE":"3569361","NORAD_CAT_ID":"53510","BSTAR":"-0.03375300000000","ARG_OF_PERICENTER":"60.6045","CLASSIFICATION_TYPE":"U","GP_ID":"212359988","REF_FRAME":"TEME","ECCENTRICITY":"0.00019460","RCS_SIZE":"LARGE","PERIOD":"93.520","CENTER_NAME":"EARTH"},{"TIME_SYSTEM":"UTC","MEAN_MOTION_DDOT":"0.0000000000000","PERIAPSIS":"400.475","SEMIMAJOR_AXIS":"6779.553","EPOCH":"2022-09-11T22:00:00.999936","TLE_LINE2":"2 53527  53.2172  40.7044 0001392  51.8688 197.4017 15.55253284  1307","TLE_LINE1":"1 53527U 22101A   22254.91667824 -.01115543  00000-0 -17902-1 0  9998","EPHEMERIS_TYPE":"0","REV_AT_EPOCH":"130","OBJECT_TYPE":"PAYLOAD","LAUNCH_DATE":"2022-08-19","SITE":"AFETR","APOAPSIS":"402.362","COUNTRY_CODE":"US","OBJECT_ID":"2022-101A","RA_OF_ASC_NODE":"40.7044","ELEMENT_SET_NO":"999","DECAY_DATE":null,"OBJECT_NAME":"STARLINK-4511","MEAN_MOTION_DOT":"-0.01115543","MEAN_MOTION":"15.55253284","INCLINATION":"53.2172","MEAN_ANOMALY":"197.4017","FILE":"3569361","NORAD_CAT_ID":"53527","MEAN_ELEMENT_THEORY":"SGP4","ARG_OF_PERICENTER":"51.8688","BSTAR":"-0.01790200000000","CLASSIFICATION_TYPE":"U","ECCENTRICITY":"0.00013920","GP_ID":"212359990","REF_FRAME":"TEME","RCS_SIZE":"LARGE","PERIOD":"92.589","CENTER_NAME":"EARTH"},{"OBJECT_NAME":"STARLINK-4503","DECAY_DATE":null,"ELEMENT_SET_NO":"999","MEAN_ANOMALY":"210.7509","MEAN_MOTION_DOT":"-0.01115812","MEAN_MOTION":"15.55246094","INCLINATION":"53.2172","CLASSIFICATION_TYPE":"U","BSTAR":"-0.01791000000000","ARG_OF_PERICENTER":"37.7337","FILE":"3569361","NORAD_CAT_ID":"53528","MEAN_ELEMENT_THEORY":"SGP4","RCS_SIZE":"LARGE","PERIOD":"92.590","CENTER_NAME":"EARTH","REF_FRAME":"TEME","GP_ID":"212359836","ECCENTRICITY":"0.00016650","PERIAPSIS":"400.311","MEAN_MOTION_DDOT":"0.0000000000000","SEMIMAJOR_AXIS":"6779.574","EPOCH":"2022-09-11T22:00:00.999936","TLE_LINE1":"1 53528U 22101B   22254.91667824 -.01115812  00000-0 -17910-1 0  9997","TLE_LINE2":"2 53528  53.2172  40.6952 0001665  37.7337 210.7509 15.55246094  1308","TIME_SYSTEM":"UTC","REV_AT_EPOCH":"130","OBJECT_TYPE":"PAYLOAD","EPHEMERIS_TYPE":"0","APOAPSIS":"402.568","COUNTRY_CODE":"US","LAUNCH_DATE":"2022-08-19","SITE":"AFETR","RA_OF_ASC_NODE":"40.6952","OBJECT_ID":"2022-101B"},{"OBJECT_ID":"2022-101C","RA_OF_ASC_NODE":"40.7145","SITE":"AFETR","LAUNCH_DATE":"2022-08-19","COUNTRY_CODE":"US","APOAPSIS":"402.401","EPHEMERIS_TYPE":"0","OBJECT_TYPE":"PAYLOAD","REV_AT_EPOCH":"130","TIME_SYSTEM":"UTC","TLE_LINE2":"2 53529  53.2172  40.7145 0001481  46.1155 203.9407 15.55260657  1304","TLE_LINE1":"1 53529U 22101C   22254.91667824 -.01115621  00000-0 -17898-1 0  9991","EPOCH":"2022-09-11T22:00:00.999936","PERIAPSIS":"400.393","SEMIMAJOR_AXIS":"6779.532","MEAN_MOTION_DDOT":"0.0000000000000","ECCENTRICITY":"0.00014810","GP_ID":"212359114","REF_FRAME":"TEME","RCS_SIZE":"LARGE","CENTER_NAME":"EARTH","PERIOD":"92.589","MEAN_ELEMENT_THEORY":"SGP4","FILE":"3569361","NORAD_CAT_ID":"53529","ARG_OF_PERICENTER":"46.1155","BSTAR":"-0.01789800000000","CLASSIFICATION_TYPE":"U","MEAN_MOTION":"15.55260657","INCLINATION":"53.2172","MEAN_MOTION_DOT":"-0.01115621","MEAN_ANOMALY":"203.9407","DECAY_DATE":null,"ELEMENT_SET_NO":"999","OBJECT_NAME":"STARLINK-4478"}];
